{
    "links": {
        "self": "http://www.neowsapp.com/rest/v1/neo/3829466?api_key=iIulBulltgU6a56xZRHN4H3l9WmuAYTsLGpBGhQ2"
    },
    "id": "3829466",
    "neo_reference_id": "3829466",
    "name": "(2018 RM7)",
    "designation": "2018 RM7",
    "nasa_jpl_url": "http://ssd.jpl.nasa.gov/sbdb.cgi?sstr=3829466",
    "absolute_magnitude_h": 28.3,
    "estimated_diameter": {
        "kilometers": {
            "estimated_diameter_min": 0.0058150704,
            "estimated_diameter_max": 0.0130028927
        },
        "meters": {
            "estimated_diameter_min": 5.8150703965,
            "estimated_diameter_max": 13.0028927004
        },
        "miles": {
            "estimated_diameter_min": 0.0036133161,
            "estimated_diameter_max": 0.0080796204
        },
        "feet": {
            "estimated_diameter_min": 19.0783155595,
            "estimated_diameter_max": 42.6604104873
        }
    },
    "is_potentially_hazardous_asteroid": false,
    "close_approach_data": [
        {
            "close_approach_date": "1909-12-01",
            "close_approach_date_full": "1909-Dec-01 23:22",
            "epoch_date_close_approach": -1896050280000,
            "relative_velocity": {
                "kilometers_per_second": "16.8461731411",
                "kilometers_per_hour": "60646.2233080925",
                "miles_per_hour": "37683.2046994089"
            },
            "miss_distance": {
                "astronomical": "0.0804340054",
                "lunar": "31.2888281006",
                "kilometers": "12032755.883408498",
                "miles": "7476807.8017653524"
            },
            "orbiting_body": "Venus"
        },
        {
            "close_approach_date": "1910-01-21",
            "close_approach_date_full": "1910-Jan-21 02:41",
            "epoch_date_close_approach": -1891718340000,
            "relative_velocity": {
                "kilometers_per_second": "12.3585440877",
                "kilometers_per_hour": "44490.7587157981",
                "miles_per_hour": "27644.8272698247"
            },
            "miss_distance": {
                "astronomical": "0.2333339773",
                "lunar": "90.7669171697",
                "kilometers": "34906266.002708351",
                "miles": "21689747.9271072038"
            },
            "orbiting_body": "Earth"
        },
        {
            "close_approach_date": "2018-09-17",
            "close_approach_date_full": "2018-Sep-17 04:43",
            "epoch_date_close_approach": 1537159380000,
            "relative_velocity": {
                "kilometers_per_second": "18.3116726202",
                "kilometers_per_hour": "65922.0214327754",
                "miles_per_hour": "40961.3804841598"
            },
            "miss_distance": {
                "astronomical": "0.0074427105",
                "lunar": "2.8952143845",
                "kilometers": "1113413.637826635",
                "miles": "691843.153352163"
            },
            "orbiting_body": "Moon"
        },
        {
            "close_approach_date": "2018-09-17",
            "close_approach_date_full": "2018-Sep-17 04:43",
            "epoch_date_close_approach": 1537159380000,
            "relative_velocity": {
                "kilometers_per_second": "17.3718668421",
                "kilometers_per_hour": "62538.7206314131",
                "miles_per_hour": "38859.1289390022"
            },
            "miss_distance": {
                "astronomical": "0.0071436788",
                "lunar": "2.7788910532",
                "kilometers": "1068679.132444156",
                "miles": "664046.4206591128"
            },
            "orbiting_body": "Earth"
        },
        {
            "close_approach_date": "2021-04-07",
            "close_approach_date_full": "2021-Apr-07 02:09",
            "epoch_date_close_approach": 1617761340000,
            "relative_velocity": {
                "kilometers_per_second": "18.1426126818",
                "kilometers_per_hour": "65313.4056544087",
                "miles_per_hour": "40583.2103078741"
            },
            "miss_distance": {
                "astronomical": "0.1076395642",
                "lunar": "41.8717904738",
                "kilometers": "16102649.532048254",
                "miles": "10005722.4476997452"
            },
            "orbiting_body": "Venus"
        }
    ],
    "orbital_data": {
        "orbit_id": "2",
        "orbit_determination_date": "2019-07-27 14:01:09",
        "first_observation_date": "2018-09-14",
        "last_observation_date": "2018-09-15",
        "data_arc_in_days": 1,
        "observations_used": 27,
        "orbit_uncertainty": "8",
        "minimum_orbit_intersection": ".0070952",
        "jupiter_tisserand_invariant": "3.761",
        "epoch_osculation": "2458376.5",
        "eccentricity": ".6260463206164297",
        "semi_major_axis": "1.830953805006075",
        "inclination": "6.744732624545732",
        "ascending_node_longitude": "170.6258015945293",
        "orbital_period": "904.9290031209529",
        "perihelion_distance": ".6846919121633699",
        "perihelion_argument": "263.6236732351636",
        "aphelion_distance": "2.977215697848781",
        "perihelion_time": "2458426.707873147830",
        "mean_anomaly": "340.0262404333582",
        "mean_motion": ".3978212641637284",
        "equinox": "J2000",
        "orbit_class": {
            "orbit_class_type": "APO",
            "orbit_class_description": "Near-Earth asteroid orbits which cross the Earth’s orbit similar to that of 1862 Apollo",
            "orbit_class_range": "a (semi-major axis) > 1.0 AU; q (perihelion) < 1.017 AU"
        }
    },
    "is_sentry_object": false
}